satname,norad_id,inclination_deg,eccentricity,mean_motion_rev_per_day,perigee_km,apogee_km,l1,l2
STARLINK-1008,44714,53.1523,0.000258,15.46870819,424.1311436333881,427.64201980155485,1 44714U 19074B   26141.52413756  .00009780  00000+0  19975-3 0  9995,2 44714  53.1523 196.0541 0002580  34.0544 326.0629 15.46870819360086
STARLINK-1012,44718,53.1569,0.0002387,15.4708276,423.6411886580563,426.88913284959926,1 44718U 19074F   26141.65402087  .00010044  00000+0  20342-3 0  9993,2 44718  53.1569 195.7433 0002387  26.4263 333.6867 15.47082760360094
STARLINK-1017,44723,53.0446,0.0005037,15.30002852,472.35145104726416,479.25611099006346,1 44723U 19074L   26141.44114831  .00023967  00000+0  82342-3 0  9999,2 44723  53.0446 194.1664 0005037 340.3116  19.7687 15.30002852360089
STARLINK-1020,44725,53.1577,0.0003133,15.51898841,409.05523047599127,413.3094179645468,1 44725U 19074N   26141.53940773  .00045673  00000+0  75213-3 0  9990,2 44725  53.1577 220.9755 0003133   9.5027 350.6042 15.51898841359710
STARLINK-1036,44741,53.0409,0.0002585,15.67246968,365.0406721196514,368.52779639776236,1 44741U 19074AE  26141.51923366  .00033250  00000+0  30755-3 0  9995,2 44741  53.0409 192.3012 0002585 311.7008  48.3786 15.67246968360112
STARLINK-1039,44744,53.0578,0.0002643,15.27311186,482.04051565935697,485.6677641759179,1 44744U 19074AH  26141.63595690  .00013617  00000+0  51423-3 0  9996,2 44744  53.0578 238.2952 0002643 357.7062   2.3923 15.27311186359482
STARLINK-1042,44747,53.0419,0.0003509,15.5322377,404.93981349046226,409.7018477960073,1 44747U 19074AL  26141.88584594  .00018709  00000+0  29910-3 0  9990,2 44747  53.0419 102.6052 0003509  53.5506 306.5827 15.53223770361430
STARLINK-1043,44748,53.0476,9.85e-05,15.61072783,383.8909246492012,385.22317537705294,1 44748U 19074AM  26142.00003472  .00105483  00000+0  12198-2 0  9992,2 44748  53.0476 199.3928 0000985  76.8202 308.0934 15.61072783  5958
STARLINK-1046,44751,53.0487,0.0006668,15.52908441,403.7142004848829,412.76451199356325,1 44751U 19074AQ  26141.68567122  .00053391  00000+0  84528-3 0  9993,2 44751  53.0487 221.5345 0006668   9.5062 350.6072 15.52908441359728
STARLINK-1047,44752,53.0672,0.0003637,15.34024643,461.33068835761696,466.3075272304268,1 44752U 19074AR  26141.36550436  .00004632  00000+0  14990-3 0  9999,2 44752  53.0672 166.0757 0003637  81.4078 278.7335 15.34024643360495
STARLINK-1048,44753,53.0442,0.0007019,15.65461091,367.1751338499198,376.6508540314135,1 44753U 19074AS  26141.36440525  .00032038  00000+0  31827-3 0  9996,2 44753  53.0442 174.8318 0007019 359.9772   0.1241 15.65461091360346
STARLINK-1063,44768,53.1562,0.0001037,15.46840564,425.26971592687823,426.6808888183896,1 44768U 19074BH  26141.73043041  .00023532  00000+0  46829-3 0  9992,2 44768  53.1562 236.0877 0001037  26.1695 333.9366 15.46840564359559
STARLINK-1067,44771,53.0412,0.0006257,15.71828407,349.459397299589,357.8835824438138,1 44771U 19074BL  26140.48347427  .00050484  00000+0  38320-3 0  9995,2 44771  53.0412 211.9357 0006257 321.7339  38.3234 15.71828407359751
STARLINK-1068,44772,53.0424,0.0002389,15.72711175,349.5445693391721,352.7598237172733,1 44772U 19074BM  26141.57704543  .00044899  00000+0  32931-3 0  9998,2 44772  53.0424 180.2567 0002389  56.6945 303.4302 15.72711175360281
STARLINK-1114,44927,53.0433,7.33e-05,15.62689355,379.39696425755665,380.38769135701295,1 44927U 20001P   26141.93184162  .00079539  00000+0  86818-3 0  9993,2 44927  53.0433 334.3149 0000733  14.4080 345.6954 15.62689355351503
STARLINK-1123,44930,53.1461,0.000262,15.5519848,399.7994491315949,403.35201860414054,1 44930U 20001S   26141.88870965  .00066334  00000+0  96378-3 0  9995,2 44930  53.1461   0.3858 0002620 213.1657 146.9190 15.55198480351141
STARLINK-1094,44941,53.1552,0.0002176,15.51914486,409.65934899783406,412.614040909878,1 44941U 20001AD  26141.93974638  .00054070  00000+0  88764-3 0  9999,2 44941  53.1552 334.7345 0002176 254.8758 105.2012 15.51914486351519
STARLINK-1122,44949,53.1571,0.0001932,15.51652641,410.5886420735769,413.21231255481143,1 44949U 20001AM  26141.81837740  .00064679  00000+0  10689-2 0  9992,2 44949  53.1571 335.8798 0001932 253.4352 106.6446 15.51652641351480
STARLINK-1080,44961,53.0464,0.0004962,15.58904672,387.4671685919393,394.1846874016819,1 44961U 20001AZ  26141.89639264  .00068011  00000+0  86012-3 0  9993,2 44961  53.0464 295.0927 0004962 226.4842 133.5758 15.58904672352055
STARLINK-1090,44968,53.1515,0.0001004,15.48144645,421.471049897993,422.8365482904519,1 44968U 20001BG  26141.89445508  .00058941  00000+0  11038-2 0  9992,2 44968  53.1515 322.8095 0001004 250.0543 110.0357 15.48144645351677
STARLINK-1132,45044,53.1511,0.0001049,15.53077296,407.0356185640294,408.45929712328416,1 45044U 20006A   26141.66708574  .00055908  00000+0  87985-3 0  9998,2 45044  53.1511 265.5518 0001049 343.4906  16.6071 15.53077296348236
STARLINK-1131,45047,53.158,0.0002005,15.50008501,415.33885990901854,418.06359003723355,1 45047U 20006D   26141.90408055  .00062227  00000+0  10908-2 0  9991,2 45047  53.1580 296.8492 0002005 307.1332  52.9493 15.50008501347810
STARLINK-1134,45048,53.0266,0.0006357,15.53987023,400.7867249060919,409.4109309377109,1 45048U 20006E   26141.03957205  .00075407  00000+0  11420-2 0  9996,2 45048  53.0266 251.7375 0006357  13.8909 346.2274 15.53987023348350
STARLINK-1156,45054,53.1574,0.0001816,15.33496596,464.1468809448452,466.63244982971355,1 45054U 20006L   26141.47249575  .00038106  00000+0  11660-2 0  9996,2 45054  53.1574 302.4265 0001816 287.2394  72.8409 15.33496596347698
STARLINK-1166,45060,53.047,0.0002327,15.56508397,396.1946929331052,399.3482007242592,1 45060U 20006S   26141.90090701  .00064072  00000+0  88744-3 0  9995,2 45060  53.0470 280.7810 0002327 306.9053  53.1744 15.56508397348022
STARLINK-1169,45061,53.155,0.0003079,15.36468184,454.45865369244075,458.66746198805777,1 45061U 20006T   26141.41232324  .00037873  00000+0  10544-2 0  9992,2 45061  53.1550 301.6862 0003079 237.1964 122.8743 15.36468184347708
STARLINK-1171,45062,53.041,0.0001602,15.7193668,352.2839811842232,354.4407535815326,1 45062U 20006U   26141.63273837  .00049257  00000+0  37268-3 0  9993,2 45062  53.0410 249.8980 0001602 273.4571  86.6263 15.71936680348439
STARLINK-1133,45064,53.1562,0.0001842,15.33414277,464.37396331072887,466.89520876302504,1 45064U 20006W   26140.85675234  .00022170  00000+0  68632-3 0  9999,2 45064  53.1562 282.0778 0001842 303.6982  56.3845 15.33414277347937
STARLINK-1167,45071,53.1563,0.0002103,15.35633605,457.6013027488689,460.47701904214136,1 45071U 20006AD  26141.40723067  .00036565  00000+0  10462-2 0  9997,2 45071  53.1563 278.8643 0002103 238.5793 121.5004 15.35633605348020
STARLINK-1168,45072,53.1559,0.000178,15.33627185,463.78309516242916,466.2192523522863,1 45072U 20006AE  26141.81551106  .00036851  00000+0  11235-2 0  9993,2 45072  53.1559 277.8153 0001780 324.7883  35.3001 15.33627185348077
STARLINK-1172,45074,53.1557,0.0002288,15.36641181,454.48641344985845,457.61373745558467,1 45074U 20006AG  26140.85589712  .00027943  00000+0  77751-3 0  9990,2 45074  53.1557 280.9163 0002288 249.3858 110.6900 15.36641181347946
STARLINK-1153,45080,53.1579,0.000318,15.35755445,456.5034283460027,460.85164239049664,1 45080U 20006AN  26141.71611714  .00031600  00000+0  90264-3 0  9990,2 45080  53.1579 277.3339 0003180 258.1046 101.9600 15.35755445348074
STARLINK-1151,45081,53.0486,0.0002773,15.7515603,342.32311606604617,346.0513170765562,1 45081U 20006AP  26141.76474710  .00057023  00000+0  37491-3 0  9999,2 45081  53.0486 238.3523 0002773 303.2090  56.8662 15.75156030348605
STARLINK-1185,45087,53.155,0.0003566,15.4395667,432.01605016170106,436.87478394154186,1 45087U 20006AV  26141.75540340  .00045799  00000+0  99371-3 0  9999,2 45087  53.1550 258.2825 0003566 315.5196  44.5524 15.43956670348349
STARLINK-1183,45088,53.1573,0.000243,15.33409605,463.9854472479519,467.31152699469294,1 45088U 20006AW  26141.85808654  .00037517  00000+0  11514-2 0  9997,2 45088  53.1573 262.2071 0002430 326.9709  33.1141 15.33409605348291
STARLINK-1152,45096,53.0372,0.000352,15.46684152,424.03880667070007,428.8292246657302,1 45096U 20006BE  26141.21585426  .00034549  00000+0  68610-3 0  9997,2 45096  53.0372 222.1155 0003520  11.0509 349.0574 15.46684152348784
STARLINK-1184,45098,53.0516,0.0003062,15.13492785,523.4442212764416,527.6720441757234,1 45098U 20006BG  26141.83964490  .00018798  00000+0  10520-2 0  9993,2 45098  53.0516 274.1648 0003062   1.1301 358.9697 15.13492785348105
STARLINK-1193,45100,53.0456,0.0003655,15.66098367,367.6152443736264,372.5481922567142,1 45100U 20006BJ  26141.61528097  .00038664  00000+0  37335-3 0  9990,2 45100  53.0456 234.4122 0003655 271.5230  88.5366 15.66098367348644
STARLINK-1143,45179,53.0374,0.0002638,15.8281286,320.72265588354276,324.2579068371879,1 45179U 20012B   26142.00003472  .00191286  00000+0  86922-3 0  9998,2 45179  53.0374 326.0453 0002638 300.0171 209.2463 15.82812860  6007
STARLINK-1202,45183,53.156,0.0003038,15.33187468,464.2301729221126,468.38885862509596,1 45183U 20012F   26141.93112823  .00029757  00000+0  92288-3 0  9990,2 45183  53.1560  58.5998 0003038 105.0425 255.0913 15.33187468346170
STARLINK-1216,45185,53.1559,0.0002824,15.33464581,463.55227698944327,467.4175546474971,1 45185U 20012H   26141.91339277  .00034041  00000+0  10444-2 0  9999,2 45185  53.1559  58.5704 0002824 101.9176 258.2143 15.33464581346113
STARLINK-1225,45187,53.1571,0.0002505,15.33411675,463.9279613060098,467.35669474935185,1 45187U 20012K   26141.91158442  .00032944  00000+0  10129-2 0  9994,2 45187  53.1571  59.0375 0002505 100.2878 259.8407 15.33411675346156
STARLINK-1230,45189,53.156,0.0003012,15.33306145,463.89489952850636,468.0177813567898,1 45189U 20012M   26141.07436548  .00030806  00000+0  95132-3 0  9992,2 45189  53.1560  63.0075 0003012 101.9972 258.1368 15.33306145343256
